{
  "type": "FeatureCollection",
  "features": [
    {
      "type": "Feature",
      "properties": {
        "norad_id": 46277,
        "name": "NEMO-HD",
        "group": "resource",
        "lat": -78.72559150902033,
        "lon": 99.04730181682284,
        "alt_km": 452.1472977976082,
        "timestamp": "2025-12-26T15:29:39.096067+00:00",
        "meta_object_name": "NEMO-HD",
        "meta_object_id": "2020-061F",
        "meta_epoch": "2025-12-26T08:03:09.201024",
        "meta_mean_motion": 15.40605541,
        "meta_eccentricity": 0.00010072,
        "meta_inclination": 97.2188,
        "meta_ra_of_asc_node": 59.2608,
        "meta_arg_of_pericenter": 54.2707,
        "meta_mean_anomaly": 305.8633,
        "meta_ephemeris_type": 0,
        "meta_classification_type": "U",
        "meta_norad_cat_id": 46277,
        "meta_element_set_no": 999,
        "meta_rev_at_epoch": 29533,
        "meta_bstar": 0.00026331732,
        "meta_mean_motion_dot": 0.00010637,
        "meta_mean_motion_ddot": 0,
        "tle_line1": "1 46277U 20061F   25360.33552316  .00010637  00000+0  26332-3 0  9994",
        "tle_line2": "2 46277  97.2188  59.2608 0001007  54.2707 305.8633 15.40605541295337"
      },
      "geometry": {
        "type": "Point",
        "coordinates": [
          99.04730181682284,
          -78.72559150902033
        ]
      }
    },
    {
      "type": "Feature",
      "properties": {
        "norad_id": 46984,
        "name": "SENTINEL-6A",
        "group": "resource",
        "lat": 38.022948029385006,
        "lon": -66.91965800643382,
        "alt_km": 1337.9364286580012,
        "timestamp": "2025-12-26T15:29:39.096077+00:00",
        "meta_object_name": "SENTINEL-6A",
        "meta_object_id": "2020-086A",
        "meta_epoch": "2025-12-26T07:16:57.743904",
        "meta_mean_motion": 12.809308,
        "meta_eccentricity": 0.00077608,
        "meta_inclination": 66.0402,
        "meta_ra_of_asc_node": 134.1359,
        "meta_arg_of_pericenter": 269.4526,
        "meta_mean_anomaly": 90.56,
        "meta_ephemeris_type": 0,
        "meta_classification_type": "U",
        "meta_norad_cat_id": 46984,
        "meta_element_set_no": 999,
        "meta_rev_at_epoch": 23818,
        "meta_bstar": 6.7683543e-05,
        "meta_mean_motion_dot": -4.5e-07,
        "meta_mean_motion_ddot": 0,
        "tle_line1": "1 46984U 20086A   25360.30344611 -.00000045  00000+0  67684-4 0  9999",
        "tle_line2": "2 46984  66.0402 134.1359 0007760 269.4526  90.5600 12.80930800238184"
      },
      "geometry": {
        "type": "Point",
        "coordinates": [
          -66.91965800643382,
          38.022948029385006
        ]
      }
    },
    {
      "type": "Feature",
      "properties": {
        "norad_id": 48079,
        "name": "GAOFEN-12 02",
        "group": "resource",
        "lat": -81.56128608147584,
        "lon": 65.7136175459243,
        "alt_km": 636.8261777328025,
        "timestamp": "2025-12-26T15:29:39.096087+00:00",
        "meta_object_name": "GAOFEN-12 02",
        "meta_object_id": "2021-026A",
        "meta_epoch": "2025-12-26T06:09:24.923808",
        "meta_mean_motion": 14.80690594,
        "meta_eccentricity": 0.00035373,
        "meta_inclination": 97.9858,
        "meta_ra_of_asc_node": 354.1982,
        "meta_arg_of_pericenter": 74.0405,
        "meta_mean_anomaly": 286.1197,
        "meta_ephemeris_type": 0,
        "meta_classification_type": "U",
        "meta_norad_cat_id": 48079,
        "meta_element_set_no": 999,
        "meta_rev_at_epoch": 25617,
        "meta_bstar": 7.3560697e-05,
        "meta_mean_motion_dot": 5.13e-06,
        "meta_mean_motion_ddot": 0,
        "tle_line1": "1 48079U 21026A   25360.25653847  .00000513  00000+0  73561-4 0  9999",
        "tle_line2": "2 48079  97.9858 354.1982 0003537  74.0405 286.1197 14.80690594256177"
      },
      "geometry": {
        "type": "Point",
        "coordinates": [
          65.7136175459243,
          -81.56128608147584
        ]
      }
    },
    {
      "type": "Feature",
      "properties": {
        "norad_id": 48268,
        "name": "PLEIADES NEO 3",
        "group": "resource",
        "lat": 28.660174419883102,
        "lon": 68.53762741119954,
        "alt_km": 622.2811296926402,
        "timestamp": "2025-12-26T15:29:39.096097+00:00",
        "meta_object_name": "PLEIADES NEO 3",
        "meta_object_id": "2021-034A",
        "meta_epoch": "2025-12-26T07:15:36.057024",
        "meta_mean_motion": 14.8167322,
        "meta_eccentricity": 0.00013552,
        "meta_inclination": 97.8941,
        "meta_ra_of_asc_node": 72.5489,
        "meta_arg_of_pericenter": 89.8567,
        "meta_mean_anomaly": 270.2801,
        "meta_ephemeris_type": 0,
        "meta_classification_type": "U",
        "meta_norad_cat_id": 48268,
        "meta_element_set_no": 999,
        "meta_rev_at_epoch": 25205,
        "meta_bstar": 5.8503863e-05,
        "meta_mean_motion_dot": 4.08e-06,
        "meta_mean_motion_ddot": 0,
        "tle_line1": "1 48268U 21034A   25360.30250066  .00000408  00000+0  58504-4 0  9993",
        "tle_line2": "2 48268  97.8941  72.5489 0001355  89.8567 270.2801 14.81673220252058"
      },
      "geometry": {
        "type": "Point",
        "coordinates": [
          68.53762741119954,
          28.660174419883102
        ]
      }
    },
    {
      "type": "Feature",
      "properties": {
        "norad_id": 49070,
        "name": "PLEIADES NEO 4",
        "group": "resource",
        "lat": -28.957141484012116,
        "lon": -111.52026631061749,
        "alt_km": 630.4604225215271,
        "timestamp": "2025-12-26T15:29:39.096110+00:00",
        "meta_object_name": "PLEIADES NEO 4",
        "meta_object_id": "2021-073E",
        "meta_epoch": "2025-12-26T08:04:12.432864",
        "meta_mean_motion": 14.81671672,
        "meta_eccentricity": 0.0001389,
        "meta_inclination": 97.8943,
        "meta_ra_of_asc_node": 72.5782,
        "meta_arg_of_pericenter": 89.4995,
        "meta_mean_anomaly": 270.6377,
        "meta_ephemeris_type": 0,
        "meta_classification_type": "U",
        "meta_norad_cat_id": 49070,
        "meta_element_set_no": 999,
        "meta_rev_at_epoch": 23577,
        "meta_bstar": -6.318255e-05,
        "meta_mean_motion_dot": -5.49e-06,
        "meta_mean_motion_ddot": 0,
        "tle_line1": "1 49070U 21073E   25360.33625501 -.00000549  00000+0 -63183-4 0  9998",
        "tle_line2": "2 49070  97.8943  72.5782 0001389  89.4995 270.6377 14.81671672235777"
      },
      "geometry": {
        "type": "Point",
        "coordinates": [
          -111.52026631061749,
          -28.957141484012116
        ]
      }
    },
    {
      "type": "Feature",
      "properties": {
        "norad_id": 49260,
        "name": "LANDSAT 9",
        "group": "resource",
        "lat": 75.48534604808839,
        "lon": 34.67028853975027,
        "alt_km": 694.5814440753966,
        "timestamp": "2025-12-26T15:29:39.096121+00:00",
        "meta_object_name": "LANDSAT 9",
        "meta_object_id": "2021-088A",
        "meta_epoch": "2025-12-26T03:36:04.168800",
        "meta_mean_motion": 14.5711124,
        "meta_eccentricity": 0.00011098,
        "meta_inclination": 98.2076,
        "meta_ra_of_asc_node": 68.0655,
        "meta_arg_of_pericenter": 93.5526,
        "meta_mean_anomaly": 266.5799,
        "meta_ephemeris_type": 0,
        "meta_classification_type": "U",
        "meta_norad_cat_id": 49260,
        "meta_element_set_no": 999,
        "meta_rev_at_epoch": 22580,
        "meta_bstar": 0.00010352075,
        "meta_mean_motion_dot": 4.21e-06,
        "meta_mean_motion_ddot": 0,
        "tle_line1": "1 49260U 21088A   25360.15004825  .00000421  00000+0  10352-3 0  9991",
        "tle_line2": "2 49260  98.2076  68.0655 0001109  93.5526 266.5799 14.57111240225803"
      },
      "geometry": {
        "type": "Point",
        "coordinates": [
          34.67028853975027,
          75.48534604808839
        ]
      }
    },
    {
      "type": "Feature",
      "properties": {
        "norad_id": 51444,
        "name": "CSG-2",
        "group": "resource",
        "lat": -81.07267631276827,
        "lon": -60.095887938073,
        "alt_km": 630.8930796896657,
        "timestamp": "2025-12-26T15:29:39.096131+00:00",
        "meta_object_name": "CSG-2",
        "meta_object_id": "2022-008A",
        "meta_epoch": "2025-12-26T07:49:03.186048",
        "meta_mean_motion": 14.82155934,
        "meta_eccentricity": 0.00014473,
        "meta_inclination": 97.8806,
        "meta_ra_of_asc_node": 181.4438,
        "meta_arg_of_pericenter": 84.3036,
        "meta_mean_anomaly": 275.8342,
        "meta_ephemeris_type": 0,
        "meta_classification_type": "U",
        "meta_norad_cat_id": 51444,
        "meta_element_set_no": 999,
        "meta_rev_at_epoch": 21098,
        "meta_bstar": 4.5245052e-05,
        "meta_mean_motion_dot": 3.08e-06,
        "meta_mean_motion_ddot": 0,
        "tle_line1": "1 51444U 22008A   25360.32573132  .00000308  00000+0  45245-4 0  9996",
        "tle_line2": "2 51444  97.8806 181.4438 0001447  84.3036 275.8342 14.82155934210980"
      },
      "geometry": {
        "type": "Point",
        "coordinates": [
          -60.095887938073,
          -81.07267631276827
        ]
      }
    }
  ]
}